{
  "norad_id": 68674,
  "name": "STARLINK-36672",
  "history": [
    {
      "epoch": "2026-04-22T12:58:54.818400Z",
      "apogee_km": 344.5105715975751,
      "perigee_km": 342.4362826197694,
      "latitude_deg": -3.805957579902782e-05,
      "longitude_deg": -61.728026927765065,
      "height_km": 347.1285053799387,
      "semi_major_axis_km": 6721.610427108672,
      "eccentricity": 0.0001543,
      "inclination_deg": 97.2833,
      "raan_deg": 343.6014,
      "arg_perigee_deg": 118.0979,
      "mean_anomaly_deg": 242.0442,
      "mean_motion_rev_day": 15.75406943
    }
  ]
}